[{"OBJECT_NAME":"SES-2","OBJECT_ID":"2011-049A","EPOCH":"2026-03-04T07:20:02.674464","MEAN_MOTION":1.00272089,"ECCENTRICITY":0.00029282,"INCLINATION":0.019,"RA_OF_ASC_NODE":76.8239,"ARG_OF_PERICENTER":265.595,"MEAN_ANOMALY":202.6308,"EPHEMERIS_TYPE":0,"CLASSIFICATION_TYPE":"U","NORAD_CAT_ID":37809,"ELEMENT_SET_NO":999,"REV_AT_EPOCH":5291,"BSTAR":0,"MEAN_MOTION_DOT":-2.08e-6,"MEAN_MOTION_DDOT":0},{"OBJECT_NAME":"QUETZSAT 1","OBJECT_ID":"2011-054A","EPOCH":"2026-03-04T08:17:38.511168","MEAN_MOTION":1.00271265,"ECCENTRICITY":0.00027533,"INCLINATION":0.0535,"RA_OF_ASC_NODE":289.0086,"ARG_OF_PERICENTER":70.1674,"MEAN_ANOMALY":210.3159,"EPHEMERIS_TYPE":0,"CLASSIFICATION_TYPE":"U","NORAD_CAT_ID":37826,"ELEMENT_SET_NO":999,"REV_AT_EPOCH":4882,"BSTAR":0,"MEAN_MOTION_DOT":-2.53e-6,"MEAN_MOTION_DDOT":0},{"OBJECT_NAME":"SES-4","OBJECT_ID":"2012-007A","EPOCH":"2026-03-04T10:44:38.580000","MEAN_MOTION":1.00269941,"ECCENTRICITY":0.0002464,"INCLINATION":0.0364,"RA_OF_ASC_NODE":64.5985,"ARG_OF_PERICENTER":288.7781,"MEAN_ANOMALY":307.97,"EPHEMERIS_TYPE":0,"CLASSIFICATION_TYPE":"U","NORAD_CAT_ID":38087,"ELEMENT_SET_NO":999,"REV_AT_EPOCH":5117,"BSTAR":0,"MEAN_MOTION_DOT":-1.8e-6,"MEAN_MOTION_DDOT":0},{"OBJECT_NAME":"SES-5","OBJECT_ID":"2012-036A","EPOCH":"2026-03-04T09:02:38.798880","MEAN_MOTION":1.00272007,"ECCENTRICITY":0.00020137,"INCLINATION":0.0601,"RA_OF_ASC_NODE":311.183,"ARG_OF_PERICENTER":27.7089,"MEAN_ANOMALY":323.8631,"EPHEMERIS_TYPE":0,"CLASSIFICATION_TYPE":"U","NORAD_CAT_ID":38652,"ELEMENT_SET_NO":999,"REV_AT_EPOCH":4340,"BSTAR":0,"MEAN_MOTION_DOT":2.2e-7,"MEAN_MOTION_DDOT":0},{"OBJECT_NAME":"ASTRA 2F","OBJECT_ID":"2012-051A","EPOCH":"2026-03-04T20:23:34.168128","MEAN_MOTION":1.00275639,"ECCENTRICITY":0.0002507,"INCLINATION":0.0963,"RA_OF_ASC_NODE":260.6963,"ARG_OF_PERICENTER":9.3529,"MEAN_ANOMALY":226.6283,"EPHEMERIS_TYPE":0,"CLASSIFICATION_TYPE":"U","NORAD_CAT_ID":38778,"ELEMENT_SET_NO":999,"REV_AT_EPOCH":4009,"BSTAR":0,"MEAN_MOTION_DOT":1.4e-6,"MEAN_MOTION_DDOT":0},{"OBJECT_NAME":"SES-6","OBJECT_ID":"2013-026A","EPOCH":"2026-03-04T09:34:38.603424","MEAN_MOTION":1.00272113,"ECCENTRICITY":0.00018443,"INCLINATION":0.0661,"RA_OF_ASC_NODE":288.6587,"ARG_OF_PERICENTER":60.4201,"MEAN_ANOMALY":276.2078,"EPHEMERIS_TYPE":0,"CLASSIFICATION_TYPE":"U","NORAD_CAT_ID":39172,"ELEMENT_SET_NO":999,"REV_AT_EPOCH":4667,"BSTAR":0,"MEAN_MOTION_DOT":-2.73e-6,"MEAN_MOTION_DDOT":0},{"OBJECT_NAME":"O3B FM5","OBJECT_ID":"2013-031A","EPOCH":"2026-03-04T02:20:32.969184","MEAN_MOTION":5.00116461,"ECCENTRICITY":0.00033375,"INCLINATION":0.0976,"RA_OF_ASC_NODE":14.1291,"ARG_OF_PERICENTER":319.9767,"MEAN_ANOMALY":25.8709,"EPHEMERIS_TYPE":0,"CLASSIFICATION_TYPE":"U","NORAD_CAT_ID":39188,"ELEMENT_SET_NO":999,"REV_AT_EPOCH":23177,"BSTAR":0,"MEAN_MOTION_DOT":-2.8e-7,"MEAN_MOTION_DDOT":0},{"OBJECT_NAME":"O3B FM4","OBJECT_ID":"2013-031B","EPOCH":"2026-03-03T19:36:26.511264","MEAN_MOTION":5.00115238,"ECCENTRICITY":0.0005037,"INCLINATION":0.0555,"RA_OF_ASC_NODE":345.1409,"ARG_OF_PERICENTER":5.4008,"MEAN_ANOMALY":9.4419,"EPHEMERIS_TYPE":0,"CLASSIFICATION_TYPE":"U","NORAD_CAT_ID":39189,"ELEMENT_SET_NO":999,"REV_AT_EPOCH":23177,"BSTAR":0,"MEAN_MOTION_DOT":-2.8e-7,"MEAN_MOTION_DDOT":0},{"OBJECT_NAME":"O3B FM2","OBJECT_ID":"2013-031C","EPOCH":"2026-03-04T01:58:52.315680","MEAN_MOTION":5.00115986,"ECCENTRICITY":0.00028387,"INCLINATION":0.0565,"RA_OF_ASC_NODE":339.0319,"ARG_OF_PERICENTER":0.926,"MEAN_ANOMALY":20.0242,"EPHEMERIS_TYPE":0,"CLASSIFICATION_TYPE":"U","NORAD_CAT_ID":39190,"ELEMENT_SET_NO":999,"REV_AT_EPOCH":23185,"BSTAR":0,"MEAN_MOTION_DOT":-2.8e-7,"MEAN_MOTION_DDOT":0},{"OBJECT_NAME":"O3B PFM","OBJECT_ID":"2013-031D","EPOCH":"2026-03-03T07:07:49.413216","MEAN_MOTION":5.00116017,"ECCENTRICITY":0.00051075,"INCLINATION":0.0664,"RA_OF_ASC_NODE":7.6623,"ARG_OF_PERICENTER":349.0732,"MEAN_ANOMALY":3.2541,"EPHEMERIS_TYPE":0,"CLASSIFICATION_TYPE":"U","NORAD_CAT_ID":39191,"ELEMENT_SET_NO":999,"REV_AT_EPOCH":23137,"BSTAR":0,"MEAN_MOTION_DOT":-2.8e-7,"MEAN_MOTION_DDOT":0},{"OBJECT_NAME":"ASTRA 2E","OBJECT_ID":"2013-056A","EPOCH":"2026-03-04T20:23:34.149120","MEAN_MOTION":1.00272285,"ECCENTRICITY":0.0002189,"INCLINATION":0.0702,"RA_OF_ASC_NODE":31.3641,"ARG_OF_PERICENTER":306.4689,"MEAN_ANOMALY":159.1172,"EPHEMERIS_TYPE":0,"CLASSIFICATION_TYPE":"U","NORAD_CAT_ID":39285,"ELEMENT_SET_NO":999,"REV_AT_EPOCH":4537,"BSTAR":0,"MEAN_MOTION_DOT":1.4e-6,"MEAN_MOTION_DDOT":0},{"OBJECT_NAME":"SES-8","OBJECT_ID":"2013-071A","EPOCH":"2026-03-04T19:31:32.018592","MEAN_MOTION":1.00272948,"ECCENTRICITY":0.0001671,"INCLINATION":0.0572,"RA_OF_ASC_NODE":272.3209,"ARG_OF_PERICENTER":95.1305,"MEAN_ANOMALY":182.9759,"EPHEMERIS_TYPE":0,"CLASSIFICATION_TYPE":"U","NORAD_CAT_ID":39460,"ELEMENT_SET_NO":999,"REV_AT_EPOCH":4339,"BSTAR":0,"MEAN_MOTION_DOT":-2.8e-6,"MEAN_MOTION_DDOT":0},{"OBJECT_NAME":"ASTRA 5B","OBJECT_ID":"2014-011B","EPOCH":"2026-03-04T20:18:45.542016","MEAN_MOTION":1.00271213,"ECCENTRICITY":0.0004118,"INCLINATION":0.0901,"RA_OF_ASC_NODE":299.2577,"ARG_OF_PERICENTER":27.2241,"MEAN_ANOMALY":164.2665,"EPHEMERIS_TYPE":0,"CLASSIFICATION_TYPE":"U","NORAD_CAT_ID":39617,"ELEMENT_SET_NO":999,"REV_AT_EPOCH":4362,"BSTAR":0,"MEAN_MOTION_DOT":1.27e-6,"MEAN_MOTION_DDOT":0},{"OBJECT_NAME":"O3B FM3","OBJECT_ID":"2014-038A","EPOCH":"2026-03-03T23:07:17.341824","MEAN_MOTION":5.00115554,"ECCENTRICITY":5.448e-5,"INCLINATION":0.053,"RA_OF_ASC_NODE":353.4529,"ARG_OF_PERICENTER":51.572,"MEAN_ANOMALY":314.9728,"EPHEMERIS_TYPE":0,"CLASSIFICATION_TYPE":"U","NORAD_CAT_ID":40079,"ELEMENT_SET_NO":999,"REV_AT_EPOCH":20778,"BSTAR":0,"MEAN_MOTION_DOT":-2.8e-7,"MEAN_MOTION_DDOT":0},{"OBJECT_NAME":"O3B FM7","OBJECT_ID":"2014-038B","EPOCH":"2026-03-02T07:26:54.646080","MEAN_MOTION":5.00115622,"ECCENTRICITY":0.00044887,"INCLINATION":0.0588,"RA_OF_ASC_NODE":348.9474,"ARG_OF_PERICENTER":339.4059,"MEAN_ANOMALY":31.6123,"EPHEMERIS_TYPE":0,"CLASSIFICATION_TYPE":"U","NORAD_CAT_ID":40080,"ELEMENT_SET_NO":999,"REV_AT_EPOCH":21253,"BSTAR":0,"MEAN_MOTION_DOT":-2.9e-7,"MEAN_MOTION_DDOT":0},{"OBJECT_NAME":"O3B FM6","OBJECT_ID":"2014-038C","EPOCH":"2026-02-28T08:07:22.842912","MEAN_MOTION":5.00115665,"ECCENTRICITY":0.00026722,"INCLINATION":0.055,"RA_OF_ASC_NODE":351.2998,"ARG_OF_PERICENTER":345.9055,"MEAN_ANOMALY":22.7755,"EPHEMERIS_TYPE":0,"CLASSIFICATION_TYPE":"U","NORAD_CAT_ID":40081,"ELEMENT_SET_NO":999,"REV_AT_EPOCH":21238,"BSTAR":0,"MEAN_MOTION_DOT":-2.8e-7,"MEAN_MOTION_DDOT":0},{"OBJECT_NAME":"O3B FM8","OBJECT_ID":"2014-038D","EPOCH":"2026-03-04T14:08:51.008064","MEAN_MOTION":5.00115977,"ECCENTRICITY":0.0002658,"INCLINATION":0.0558,"RA_OF_ASC_NODE":350.6431,"ARG_OF_PERICENTER":354.8269,"MEAN_ANOMALY":14.516,"EPHEMERIS_TYPE":0,"CLASSIFICATION_TYPE":"U","NORAD_CAT_ID":40082,"ELEMENT_SET_NO":999,"REV_AT_EPOCH":21271,"BSTAR":0,"MEAN_MOTION_DOT":-2.7e-7,"MEAN_MOTION_DDOT":0}]
